[{"OBJECT_NAME":"STARLINK-4393","OBJECT_ID":"2022-099F","EPOCH":"2026-03-09T22:07:48.387648","MEAN_MOTION":15.01259694,"ECCENTRICITY":0.0002203,"INCLINATION":97.6017,"RA_OF_ASC_NODE":190.439,"ARG_OF_PERICENTER":80.9921,"MEAN_ANOMALY":279.1553,"EPHEMERIS_TYPE":0,"CLASSIFICATION_TYPE":"U","NORAD_CAT_ID":53470,"ELEMENT_SET_NO":999,"REV_AT_EPOCH":19601,"BSTAR":-9.8480926e-5,"MEAN_MOTION_DOT":-1.323e-5,"MEAN_MOTION_DDOT":0},{"OBJECT_NAME":"THOR ABLESTAR DEB","OBJECT_ID":"1961-015EX","EPOCH":"2026-03-09T22:58:31.837152","MEAN_MOTION":15.04262729,"ECCENTRICITY":0.00191468,"INCLINATION":67.4961,"RA_OF_ASC_NODE":12.7011,"ARG_OF_PERICENTER":32.2919,"MEAN_ANOMALY":327.9391,"EPHEMERIS_TYPE":0,"CLASSIFICATION_TYPE":"U","NORAD_CAT_ID":461,"ELEMENT_SET_NO":999,"REV_AT_EPOCH":37086,"BSTAR":0.0020469071,"MEAN_MOTION_DOT":0.00028661,"MEAN_MOTION_DDOT":0}]
